     2.11           N: GPS NAV DATA                         RINEX VERSION / TYPE
teqc  2019Feb25                         20221121 12:23:16UTCPGM / RUN BY / DATE
OSX ker:10.11.6|Core i5|gcc 4.3 -m64|OSX ker:10.10+|=+      COMMENT
    7.4506D-09  2.2352D-08 -5.9605D-08 -1.1921D-07          ION ALPHA
    8.6016D+04  8.1920D+04 -1.3107D+05 -5.2429D+05          ION BETA
   -5.587935447693D-09-1.065814103640D-14    61440     1532 DELTA-UTC: A0,A1,T,W
                                                            END OF HEADER
 4 09  5 16 10  0  0.0-9.314203634858D-05-1.546140993014D-11 0.000000000000D+00
    9.200000000000D+01 1.828125000000D+01 5.403796518387D-09 1.679568737648D+00
    1.141801476479D-06 8.590382873081D-03 6.999820470810D-06 5.153734186172D+03
    5.544000000000D+05-1.378357410431D-07-1.425563153685D-01 1.732259988785D-07
    9.408644045847D-01 2.377187500000D+02 4.868364644757D-01-8.429636842496D-09
   -1.200049986899D-10 1.000000000000D+00 1.531000000000D+03 0.000000000000D+00
    2.000000000000D+00 0.000000000000D+00-6.053596735001D-09 9.200000000000D+01
    5.472180000000D+05 4.000000000000D+00
20 09  5 16 10  0  0.0 8.250260725617D-05-1.023181539495D-12 0.000000000000D+00
    2.700000000000D+01 2.315625000000D+01 4.943063041274D-09 1.270785134993D+00
    1.033768057823D-06 3.990357043222D-03 7.836148142815D-06 5.153611396790D+03
    5.544000000000D+05-7.823109626770D-08 8.748908193086D-01-1.676380634308D-08
    9.423002689199D-01 2.194687500000D+02 1.357001501017D+00-8.237843139233D-09
   -3.853731951976D-10 1.000000000000D+00 1.531000000000D+03 0.000000000000D+00
    2.000000000000D+00 0.000000000000D+00-6.519258022308D-09 2.700000000000D+01
    5.472180000000D+05 4.000000000000D+00
12 09  5 16 10  0  0.0-2.804533578455D-04 5.229594535194D-12 0.000000000000D+00
    7.300000000000D+01-7.656250000000D+01 4.279463971137D-09-2.854977547469D+00
   -3.820285201073D-06 3.348745405674D-03 7.210299372673D-06 5.153664171219D+03
    5.544000000000D+05 2.048909664154D-08-2.237509182587D+00 4.470348358154D-08
    9.668311375862D-01 2.397812500000D+02-7.195651733263D-01-7.955688529218D-09
    1.342913080577D-10 1.000000000000D+00 1.531000000000D+03 0.000000000000D+00
    2.000000000000D+00 0.000000000000D+00-1.164153218269D-08 7.300000000000D+01
    5.472180000000D+05 4.000000000000D+00
23 09  5 16  9 59 44.0 3.900248557329D-04 1.136868377216D-13 0.000000000000D+00
    3.600000000000D+01 5.000000000000D+01 4.117314359812D-09-1.325073745497D+00
    2.508983016014D-06 6.070591043681D-03 6.703659892082D-06 5.153611278534D+03
    5.543840000000D+05-1.378357410431D-07 1.952114809920D+00-5.215406417847D-08
    9.702530565800D-01 2.572812500000D+02 2.879527439922D+00-7.898186134012D-09
    3.214419607765D-11 1.000000000000D+00 1.531000000000D+03 0.000000000000D+00
    2.000000000000D+00 0.000000000000D+00-2.002343535423D-08 3.600000000000D+01
    5.472180000000D+05 4.000000000000D+00
30 09  5 16 10  0  0.0 1.466511748731D-04 2.728484105319D-12 0.000000000000D+00
    3.800000000000D+01-6.887500000000D+01 4.761984070036D-09 8.231952749874D-01
   -3.729015588760D-06 1.136308512650D-02 7.076188921928D-06 5.153600061417D+03
    5.544000000000D+05-1.229345798492D-07-2.285089330617D+00-5.774199962616D-08
    9.519041768927D-01 2.385312500000D+02 1.416607110687D+00-8.406421589773D-09
    5.571660653459D-11 1.000000000000D+00 1.531000000000D+03 0.000000000000D+00
    2.000000000000D+00 0.000000000000D+00-8.381903171539D-09 3.800000000000D+01
    5.472180000000D+05 4.000000000000D+00
 2 09  5 16  9 59 44.0 1.542866230011D-04 5.684341886081D-13 0.000000000000D+00
    1.200000000000D+01 1.443750000000D+01 5.375581057385D-09-1.188402980703D+00
    8.195638656616D-07 9.060400188901D-03 6.761401891708D-06 5.153649234772D+03
    5.543840000000D+05 2.235174179077D-08-1.609366463316D-01-1.247972249985D-07
    9.416434333315D-01 2.394375000000D+02 2.811956528042D+00-8.442494520927D-09
    6.250260348431D-11 1.000000000000D+00 1.531000000000D+03 0.000000000000D+00
    2.000000000000D+00 0.000000000000D+00-1.722946763039D-08 1.200000000000D+01
    5.472180000000D+05 4.000000000000D+00
31 09  5 16 10  0  0.0-6.034318357706D-05-9.094947017729D-13 0.000000000000D+00
    6.000000000000D+01-1.446875000000D+01 4.154101606435D-09-3.069003654744D+00
   -6.873160600662D-07 7.069492712617D-03 4.524365067482D-06 5.153712427139D+03
    5.544000000000D+05 7.264316082001D-08 2.991922634273D+00 3.352761268616D-08
    9.728831448309D-01 2.989062500000D+02-1.142696225084D+00-7.932116118761D-09
    1.042900583853D-10 1.000000000000D+00 1.531000000000D+03 0.000000000000D+00
    2.000000000000D+00 0.000000000000D+00-1.303851604462D-08 6.000000000000D+01
    5.472180000000D+05 4.000000000000D+00
13 09  5 16 10  0  0.0 2.972097136080D-04 9.094947017729D-13 0.000000000000D+00
    1.040000000000D+02 5.328125000000D+01 3.614793427799D-09-5.508891885745D-01
    2.743676304817D-06 4.123584018089D-03 7.048249244690D-06 5.153710933685D+03
    5.544000000000D+05-3.911554813385D-08 2.003886803414D+00 1.322478055954D-07
    9.947509598503D-01 2.624375000000D+02 1.562075295735D+00-7.741393888700D-09
    3.392998474863D-11 1.000000000000D+00 1.531000000000D+03 0.000000000000D+00
    2.800000000000D+00 0.000000000000D+00-1.117587089539D-08 1.040000000000D+02
    5.490960000000D+05 4.000000000000D+00
13 09  5 16  9 59 44.0 2.972097136080D-04 9.094947017729D-13 0.000000000000D+00
    2.600000000000D+01 5.328125000000D+01 3.614793427799D-09-5.532236225445D-01
    2.743676304817D-06 4.123583668843D-03 7.048249244690D-06 5.153710941315D+03
    5.543840000000D+05-3.911554813385D-08 2.003886924837D+00 1.322478055954D-07
    9.947509452211D-01 2.624375000000D+02 1.562076019879D+00-7.741393888700D-09
    3.392998474863D-11 1.000000000000D+00 1.531000000000D+03 0.000000000000D+00
    2.000000000000D+00 0.000000000000D+00-1.117587089539D-08 2.600000000000D+01
    5.504460000000D+05 4.000000000000D+00
29 09  5 16 10  0  0.0 2.058036625385D-05 3.865352482535D-12 0.000000000000D+00
    6.900000000000D+01-1.378125000000D+01 4.714839249123D-09 2.426720721882D+00
   -8.530914783478D-07 3.434364683926D-03 9.035691618919D-06 5.153682342529D+03
    5.544000000000D+05 9.499490261078D-08-1.169867533610D+00-6.519258022308D-08
    9.596156247797D-01 2.079687500000D+02-1.328349827651D+00-7.937473484774D-09
    2.221521106700D-10 1.000000000000D+00 1.531000000000D+03 0.000000000000D+00
    2.000000000000D+00 0.000000000000D+00-8.847564458847D-09 6.900000000000D+01
    5.532960000000D+05 4.000000000000D+00
10 09  5 16  9 59 44.0-1.606205478311D-05-5.684341886081D-13 0.000000000000D+00
    3.700000000000D+01 2.353125000000D+01 4.646264964157D-09-2.708133979508D-01
    1.203268766403D-06 8.607212919742D-03 7.884576916695D-06 5.153600204468D+03
    5.543840000000D+05 4.470348358154D-08 9.231141699933D-01 8.009374141693D-08
    9.585835346119D-01 2.235000000000D+02 6.241867430147D-01-8.215342201978D-09
   -4.643050544549D-10 1.000000000000D+00 1.531000000000D+03 0.000000000000D+00
    2.000000000000D+00 0.000000000000D+00-2.793967723846D-09 3.700000000000D+01
    5.538060000000D+05 4.000000000000D+00
 2 09  5 16 12  0  0.0 1.542908139527D-04 5.684341886081D-13 0.000000000000D+00
    1.300000000000D+01 1.668750000000D+01 5.436297872199D-09-1.359139226633D-01
    8.679926395416D-07 9.060090873390D-03 6.614252924919D-06 5.153648256302D+03
    5.616000000000D+05 8.381903171539D-08-1.609974218003D-01-7.264316082001D-08
    9.416436542322D-01 2.429062500000D+02 2.812003799314D+00-8.488567868638D-09
    2.321525272275D-11 1.000000000000D+00 1.531000000000D+03 0.000000000000D+00
    2.000000000000D+00 0.000000000000D+00-1.722946763039D-08 1.300000000000D+01
    5.544180000000D+05 4.000000000000D+00
 4 09  5 16 12  0  0.0-9.325332939625D-05-1.546140993014D-11 0.000000000000D+00
    9.300000000000D+01 1.696875000000D+01 5.320935924053D-09 2.729689006550D+00
    8.270144462585D-07 8.590108714998D-03 6.742775440216D-06 5.153734876633D+03
    5.616000000000D+05-1.043081283569D-07-1.426168728623D-01-9.499490261078D-08
    9.408649063656D-01 2.401875000000D+02 4.868665362198D-01-8.193912737927D-09
   -2.071514858337D-11 1.000000000000D+00 1.531000000000D+03 0.000000000000D+00
    2.000000000000D+00 0.000000000000D+00-6.053596735001D-09 9.300000000000D+01
    5.544180000000D+05 4.000000000000D+00
23 09  5 16 12  0  0.0 3.900257870555D-04 1.136868377216D-13 0.000000000000D+00
    3.700000000000D+01 3.646875000000D+01 4.141601085738D-09-2.723005946185D-01
    1.728534698486D-06 6.072117015719D-03 7.009133696556D-06 5.153615144730D+03
    5.616000000000D+05 1.043081283569D-07 1.952058455390D+00-8.009374141693D-08
    9.702522709930D-01 2.514687500000D+02 2.879302744482D+00-8.014619555360D-09
   -1.471489864888D-10 1.000000000000D+00 1.531000000000D+03 0.000000000000D+00
    2.000000000000D+00 0.000000000000D+00-2.002343535423D-08 3.700000000000D+01
    5.544180000000D+05 4.000000000000D+00
30 09  5 16 12  0  0.0 1.466707326472D-04 2.728484105319D-12 0.000000000000D+00
    5.200000000000D+01-7.931250000000D+01 4.546975114050D-09 1.873340300852D+00
   -4.159286618233D-06 1.136379712261D-02 7.040798664093D-06 5.153602052689D+03
    5.616000000000D+05 1.192092895508D-07-2.285149522381D+00-2.682209014893D-07
    9.519060289470D-01 2.392812500000D+02 1.416688059796D+00-8.118552456011D-09
    1.182192100189D-10 1.000000000000D+00 1.531000000000D+03 0.000000000000D+00
    2.000000000000D+00 0.000000000000D+00-8.381903171539D-09 5.200000000000D+01
    5.544180000000D+05 4.000000000000D+00
